[{"OBJECT_NAME":"STARLINK-30611","OBJECT_ID":"2023-161M","EPOCH":"2025-12-06T23:24:49.356000","MEAN_MOTION":15.30199689,"ECCENTRICITY":0.00012771,"INCLINATION":53.1575,"RA_OF_ASC_NODE":223.4093,"ARG_OF_PERICENTER":112.4925,"MEAN_ANOMALY":247.6211,"EPHEMERIS_TYPE":0,"CLASSIFICATION_TYPE":"U","NORAD_CAT_ID":58108,"ELEMENT_SET_NO":999,"REV_AT_EPOCH":12040,"BSTAR":0.00030365115,"MEAN_MOTION_DOT":8.645e-5,"MEAN_MOTION_DDOT":0},{"OBJECT_NAME":"STARLINK-30606","OBJECT_ID":"2023-161N","EPOCH":"2025-12-06T22:56:48.113088","MEAN_MOTION":15.30164423,"ECCENTRICITY":0.00018226,"INCLINATION":53.1594,"RA_OF_ASC_NODE":236.2744,"ARG_OF_PERICENTER":52.3036,"MEAN_ANOMALY":307.813,"EPHEMERIS_TYPE":0,"CLASSIFICATION_TYPE":"U","NORAD_CAT_ID":58109,"ELEMENT_SET_NO":999,"REV_AT_EPOCH":12022,"BSTAR":-0.00011133146,"MEAN_MOTION_DOT":-3.652e-5,"MEAN_MOTION_DDOT":0},{"OBJECT_NAME":"STARLINK-30596","OBJECT_ID":"2023-161P","EPOCH":"2025-12-07T03:05:30.316704","MEAN_MOTION":15.30186985,"ECCENTRICITY":0.00011485,"INCLINATION":53.1609,"RA_OF_ASC_NODE":235.2179,"ARG_OF_PERICENTER":92.2236,"MEAN_ANOMALY":267.8896,"EPHEMERIS_TYPE":0,"CLASSIFICATION_TYPE":"U","NORAD_CAT_ID":58110,"ELEMENT_SET_NO":999,"REV_AT_EPOCH":12025,"BSTAR":0.00014011868,"MEAN_MOTION_DOT":3.791e-5,"MEAN_MOTION_DDOT":0},{"OBJECT_NAME":"STARLINK-30595","OBJECT_ID":"2023-161Q","EPOCH":"2025-12-07T02:23:08.210112","MEAN_MOTION":15.30189829,"ECCENTRICITY":0.00014079,"INCLINATION":53.1602,"RA_OF_ASC_NODE":235.7502,"ARG_OF_PERICENTER":70.7179,"MEAN_ANOMALY":289.3974,"EPHEMERIS_TYPE":0,"CLASSIFICATION_TYPE":"U","NORAD_CAT_ID":58111,"ELEMENT_SET_NO":999,"REV_AT_EPOCH":12024,"BSTAR":0.00018876524,"MEAN_MOTION_DOT":5.234e-5,"MEAN_MOTION_DDOT":0},{"OBJECT_NAME":"STARLINK-30593","OBJECT_ID":"2023-161R","EPOCH":"2025-12-07T02:18:34.227936","MEAN_MOTION":15.30180473,"ECCENTRICITY":0.00012371,"INCLINATION":53.1612,"RA_OF_ASC_NODE":235.7223,"ARG_OF_PERICENTER":99.6263,"MEAN_ANOMALY":260.4878,"EPHEMERIS_TYPE":0,"CLASSIFICATION_TYPE":"U","NORAD_CAT_ID":58112,"ELEMENT_SET_NO":999,"REV_AT_EPOCH":12024,"BSTAR":0.00015125812,"MEAN_MOTION_DOT":4.121e-5,"MEAN_MOTION_DDOT":0},{"OBJECT_NAME":"STARLINK-30353","OBJECT_ID":"2023-161S","EPOCH":"2025-12-07T02:32:15.107424","MEAN_MOTION":15.30167297,"ECCENTRICITY":0.00012498,"INCLINATION":53.1602,"RA_OF_ASC_NODE":235.7879,"ARG_OF_PERICENTER":76.41,"MEAN_ANOMALY":283.704,"EPHEMERIS_TYPE":0,"CLASSIFICATION_TYPE":"U","NORAD_CAT_ID":58113,"ELEMENT_SET_NO":999,"REV_AT_EPOCH":12024,"BSTAR":0.00022640526,"MEAN_MOTION_DOT":6.345e-5,"MEAN_MOTION_DDOT":0},{"OBJECT_NAME":"STARLINK-30572","OBJECT_ID":"2023-161T","EPOCH":"2025-12-07T02:14:01.368960","MEAN_MOTION":15.3016615,"ECCENTRICITY":0.0001281,"INCLINATION":53.1602,"RA_OF_ASC_NODE":235.7053,"ARG_OF_PERICENTER":94.1362,"MEAN_ANOMALY":265.9786,"EPHEMERIS_TYPE":0,"CLASSIFICATION_TYPE":"U","NORAD_CAT_ID":58114,"ELEMENT_SET_NO":999,"REV_AT_EPOCH":12024,"BSTAR":0.00013929586,"MEAN_MOTION_DOT":3.764e-5,"MEAN_MOTION_DDOT":0},{"OBJECT_NAME":"STARLINK-30580","OBJECT_ID":"2023-161U","EPOCH":"2025-12-07T00:01:58.220256","MEAN_MOTION":15.30181032,"ECCENTRICITY":0.00010771,"INCLINATION":53.1592,"RA_OF_ASC_NODE":235.8283,"ARG_OF_PERICENTER":106.3528,"MEAN_ANOMALY":253.7591,"EPHEMERIS_TYPE":0,"CLASSIFICATION_TYPE":"U","NORAD_CAT_ID":58115,"ELEMENT_SET_NO":999,"REV_AT_EPOCH":12023,"BSTAR":0.00010793495,"MEAN_MOTION_DOT":2.837e-5,"MEAN_MOTION_DDOT":0},{"OBJECT_NAME":"STARLINK-30493","OBJECT_ID":"2023-161V","EPOCH":"2025-12-07T02:27:41.970240","MEAN_MOTION":15.30180177,"ECCENTRICITY":0.00011997,"INCLINATION":53.1609,"RA_OF_ASC_NODE":235.7657,"ARG_OF_PERICENTER":104.1692,"MEAN_ANOMALY":255.9442,"EPHEMERIS_TYPE":0,"CLASSIFICATION_TYPE":"U","NORAD_CAT_ID":58116,"ELEMENT_SET_NO":999,"REV_AT_EPOCH":12024,"BSTAR":0.00019267782,"MEAN_MOTION_DOT":5.348e-5,"MEAN_MOTION_DDOT":0},{"OBJECT_NAME":"STARLINK-30601","OBJECT_ID":"2023-161W","EPOCH":"2025-12-06T23:28:41.591424","MEAN_MOTION":15.30167759,"ECCENTRICITY":0.00011909,"INCLINATION":53.1609,"RA_OF_ASC_NODE":236.4104,"ARG_OF_PERICENTER":79.586,"MEAN_ANOMALY":280.5275,"EPHEMERIS_TYPE":0,"CLASSIFICATION_TYPE":"U","NORAD_CAT_ID":58117,"ELEMENT_SET_NO":999,"REV_AT_EPOCH":12022,"BSTAR":0.00025182886,"MEAN_MOTION_DOT":7.099e-5,"MEAN_MOTION_DDOT":0},{"OBJECT_NAME":"STARLINK-30795","OBJECT_ID":"2023-162A","EPOCH":"2025-12-07T04:20:57.683616","MEAN_MOTION":15.02534764,"ECCENTRICITY":9.47e-5,"INCLINATION":43.0032,"RA_OF_ASC_NODE":275.8212,"ARG_OF_PERICENTER":278.2543,"MEAN_ANOMALY":81.8192,"EPHEMERIS_TYPE":0,"CLASSIFICATION_TYPE":"U","NORAD_CAT_ID":58118,"ELEMENT_SET_NO":999,"REV_AT_EPOCH":11838,"BSTAR":8.982911e-5,"MEAN_MOTION_DOT":1.01e-5,"MEAN_MOTION_DDOT":0},{"OBJECT_NAME":"STARLINK-30765","OBJECT_ID":"2023-162B","EPOCH":"2025-12-07T04:46:32.451744","MEAN_MOTION":15.02526132,"ECCENTRICITY":0.00014894,"INCLINATION":43.0041,"RA_OF_ASC_NODE":275.9371,"ARG_OF_PERICENTER":252.9793,"MEAN_ANOMALY":107.0887,"EPHEMERIS_TYPE":0,"CLASSIFICATION_TYPE":"U","NORAD_CAT_ID":58119,"ELEMENT_SET_NO":999,"REV_AT_EPOCH":11838,"BSTAR":0.00024375019,"MEAN_MOTION_DOT":3.09e-5,"MEAN_MOTION_DDOT":0},{"OBJECT_NAME":"STARLINK-30768","OBJECT_ID":"2023-162C","EPOCH":"2025-12-07T05:51:53.514432","MEAN_MOTION":15.0253724,"ECCENTRICITY":9.508e-5,"INCLINATION":43.0029,"RA_OF_ASC_NODE":275.4348,"ARG_OF_PERICENTER":284.9447,"MEAN_ANOMALY":75.129,"EPHEMERIS_TYPE":0,"CLASSIFICATION_TYPE":"U","NORAD_CAT_ID":58120,"ELEMENT_SET_NO":999,"REV_AT_EPOCH":11839,"BSTAR":0.00011844397,"MEAN_MOTION_DOT":1.397e-5,"MEAN_MOTION_DDOT":0},{"OBJECT_NAME":"STARLINK-30799","OBJECT_ID":"2023-162D","EPOCH":"2025-12-07T04:44:55.545504","MEAN_MOTION":15.02538587,"ECCENTRICITY":0.00010198,"INCLINATION":43.0035,"RA_OF_ASC_NODE":275.9278,"ARG_OF_PERICENTER":272.9914,"MEAN_ANOMALY":87.0812,"EPHEMERIS_TYPE":0,"CLASSIFICATION_TYPE":"U","NORAD_CAT_ID":58121,"ELEMENT_SET_NO":999,"REV_AT_EPOCH":11838,"BSTAR":0.00017095856,"MEAN_MOTION_DOT":2.107e-5,"MEAN_MOTION_DDOT":0},{"OBJECT_NAME":"STARLINK-30759","OBJECT_ID":"2023-162E","EPOCH":"2025-12-07T05:48:42.571296","MEAN_MOTION":15.02526923,"ECCENTRICITY":0.00015602,"INCLINATION":43.0036,"RA_OF_ASC_NODE":275.417,"ARG_OF_PERICENTER":260.1631,"MEAN_ANOMALY":99.9035,"EPHEMERIS_TYPE":0,"CLASSIFICATION_TYPE":"U","NORAD_CAT_ID":58122,"ELEMENT_SET_NO":999,"REV_AT_EPOCH":11840,"BSTAR":0.00016067456,"MEAN_MOTION_DOT":1.967e-5,"MEAN_MOTION_DDOT":0},{"OBJECT_NAME":"STARLINK-30781","OBJECT_ID":"2023-162F","EPOCH":"2025-12-07T04:11:23.171136","MEAN_MOTION":15.02525924,"ECCENTRICITY":0.00013478,"INCLINATION":43.0045,"RA_OF_ASC_NODE":275.7674,"ARG_OF_PERICENTER":260.5809,"MEAN_ANOMALY":99.4881,"EPHEMERIS_TYPE":0,"CLASSIFICATION_TYPE":"U","NORAD_CAT_ID":58123,"ELEMENT_SET_NO":999,"REV_AT_EPOCH":11838,"BSTAR":0.00018865183,"MEAN_MOTION_DOT":2.345e-5,"MEAN_MOTION_DDOT":0},{"OBJECT_NAME":"STARLINK-30754","OBJECT_ID":"2023-162G","EPOCH":"2025-12-07T04:40:08.227488","MEAN_MOTION":15.02538608,"ECCENTRICITY":8.758e-5,"INCLINATION":43.0037,"RA_OF_ASC_NODE":275.9008,"ARG_OF_PERICENTER":274.6371,"MEAN_ANOMALY":85.4371,"EPHEMERIS_TYPE":0,"CLASSIFICATION_TYPE":"U","NORAD_CAT_ID":58124,"ELEMENT_SET_NO":999,"REV_AT_EPOCH":11259,"BSTAR":8.0111288e-5,"MEAN_MOTION_DOT":8.79e-6,"MEAN_MOTION_DDOT":0},{"OBJECT_NAME":"STARLINK-30766","OBJECT_ID":"2023-162H","EPOCH":"2025-12-07T05:42:18.971712","MEAN_MOTION":15.02527664,"ECCENTRICITY":0.00015161,"INCLINATION":43.0049,"RA_OF_ASC_NODE":275.3801,"ARG_OF_PERICENTER":274.9823,"MEAN_ANOMALY":85.0846,"EPHEMERIS_TYPE":0,"CLASSIFICATION_TYPE":"U","NORAD_CAT_ID":58125,"ELEMENT_SET_NO":999,"REV_AT_EPOCH":11839,"BSTAR":0.0001623184,"MEAN_MOTION_DOT":1.989e-5,"MEAN_MOTION_DDOT":0},{"OBJECT_NAME":"STARLINK-30767","OBJECT_ID":"2023-162J","EPOCH":"2025-12-07T04:01:48.058176","MEAN_MOTION":15.02522072,"ECCENTRICITY":0.00014029,"INCLINATION":43.0044,"RA_OF_ASC_NODE":275.7185,"ARG_OF_PERICENTER":273.3624,"MEAN_ANOMALY":86.7058,"EPHEMERIS_TYPE":0,"CLASSIFICATION_TYPE":"U","NORAD_CAT_ID":58126,"ELEMENT_SET_NO":999,"REV_AT_EPOCH":11838,"BSTAR":0.00013447798,"MEAN_MOTION_DOT":1.613e-5,"MEAN_MOTION_DDOT":0},{"OBJECT_NAME":"STARLINK-30790","OBJECT_ID":"2023-162K","EPOCH":"2025-12-07T05:02:36.399264","MEAN_MOTION":15.04846939,"ECCENTRICITY":0.00025082,"INCLINATION":43.0029,"RA_OF_ASC_NODE":275.1775,"ARG_OF_PERICENTER":192.1819,"MEAN_ANOMALY":167.8964,"EPHEMERIS_TYPE":0,"CLASSIFICATION_TYPE":"U","NORAD_CAT_ID":58127,"ELEMENT_SET_NO":999,"REV_AT_EPOCH":11839,"BSTAR":0.0035773707,"MEAN_MOTION_DOT":0.00051569,"MEAN_MOTION_DDOT":0},{"OBJECT_NAME":"STARLINK-30787","OBJECT_ID":"2023-162L","EPOCH":"2025-12-07T03:52:12.493344","MEAN_MOTION":15.02529108,"ECCENTRICITY":0.00014858,"INCLINATION":43.0037,"RA_OF_ASC_NODE":275.6677,"ARG_OF_PERICENTER":267.0961,"MEAN_ANOMALY":92.9711,"EPHEMERIS_TYPE":0,"CLASSIFICATION_TYPE":"U","NORAD_CAT_ID":58128,"ELEMENT_SET_NO":999,"REV_AT_EPOCH":11838,"BSTAR":0.00037896491,"MEAN_MOTION_DOT":4.918e-5,"MEAN_MOTION_DDOT":0},{"OBJECT_NAME":"STARLINK-30756","OBJECT_ID":"2023-162M","EPOCH":"2025-12-07T04:35:21.094368","MEAN_MOTION":15.02520105,"ECCENTRICITY":8.749e-5,"INCLINATION":43.0069,"RA_OF_ASC_NODE":275.8719,"ARG_OF_PERICENTER":298.9268,"MEAN_ANOMALY":61.1487,"EPHEMERIS_TYPE":0,"CLASSIFICATION_TYPE":"U","NORAD_CAT_ID":58129,"ELEMENT_SET_NO":999,"REV_AT_EPOCH":11838,"BSTAR":0.00034555193,"MEAN_MOTION_DOT":4.465e-5,"MEAN_MOTION_DDOT":0},{"OBJECT_NAME":"STARLINK-30783","OBJECT_ID":"2023-162N","EPOCH":"2025-12-07T03:47:23.618400","MEAN_MOTION":15.02535536,"ECCENTRICITY":0.00012324,"INCLINATION":43.0045,"RA_OF_ASC_NODE":275.6404,"ARG_OF_PERICENTER":275.801,"MEAN_ANOMALY":84.2692,"EPHEMERIS_TYPE":0,"CLASSIFICATION_TYPE":"U","NORAD_CAT_ID":58130,"ELEMENT_SET_NO":999,"REV_AT_EPOCH":11838,"BSTAR":0.00012416807,"MEAN_MOTION_DOT":1.474e-5,"MEAN_MOTION_DDOT":0}]
